*******************************************************************************
JPL/HORIZONS               2936 Nechvile (1979 SF)         2023-Sep-04 11:20:47
Rec #:    2936 (+COV) Soln.date: 2023-Aug-23_04:06:50   # obs: 4390 (1966-2023)
 
IAU76/J2000 helio. ecliptic osc. elements (au, days, deg., period=Julian yrs):
 
  EPOCH=  2457480.5 ! 2016-Apr-02.00 (TDB)         Residual RMS= .25423
   EC= .07514347786966209  QR= 2.476752044488315   TP= 2456701.5273797312
   OM= 333.8752713677052   W=  321.0943486178166   IN= 8.468908777932512
   A= 2.677985163345447    MA= 175.19189776537     ADIST= 2.87921828220258
   PER= 4.38249            N= .224901227           ANGMOM= .028070873
   DAN= 2.51575            DDN= 2.82825            L= 295.2762729
   B= -5.307051            MOID= 1.46650004        TP= 2014-Feb-13.0273797312
 
Asteroid physical parameters (km, seconds, rotational period in hours):
   GM= n.a.                RAD= 4.7325             ROTPER= 119.642
   H= 12.33                G= .150                 B-V= n.a.
                           ALBEDO= .183            STYP= n.a.

ASTEROID comments: 
1: soln ref.= JPL#59, OCC=0
2: source=ORB
*******************************************************************************


*******************************************************************************
Ephemeris / API_USER Mon Sep  4 11:20:47 2023 Pasadena, USA      / Horizons
*******************************************************************************
Target body name: 2936 Nechvile (1979 SF)         {source: JPL#59}
Center body name: Solar System Barycenter (0)     {source: DE441}
Center-site name: BODY CENTER
*******************************************************************************
Start time      : A.D. 2023-Aug-12 00:00:00.0000 TDB
Stop  time      : A.D. 2023-Aug-13 00:00:00.0000 TDB
Step-size       : 2880 minutes
*******************************************************************************
Center geodetic : 0.0, 0.0, 0.0                   {E-lon(deg),Lat(deg),Alt(km)}
Center cylindric: 0.0, 0.0, 0.0                   {E-lon(deg),Dxy(km),Dz(km)}
Center radii    : (undefined)
Small perturbers: Yes                             {source: SB441-N16}
Output units    : KM-S
Calendar mode   : Mixed Julian/Gregorian
Output type     : GEOMETRIC cartesian states
Output format   : 2 (position and velocity)
Reference frame : Ecliptic of J2000.0
*******************************************************************************
Initial IAU76/J2000 heliocentric ecliptic osculating elements (au, days, deg.):
  EPOCH=  2457480.5 ! 2016-Apr-02.00 (TDB)         Residual RMS= .25423        
   EC= .07514347786966209  QR= 2.476752044488315   TP= 2456701.5273797312      
   OM= 333.8752713677052   W=  321.0943486178166   IN= 8.468908777932512       
  Equivalent ICRF heliocentric cartesian coordinates (au, au/d):
   X=-1.032648468867494E+00  Y= 2.335814559447062E+00  Z= 1.328148079806204E+00
  VX=-9.101057709442056E-03 VY=-2.652277239569774E-03 VZ=-2.287407561077262E-03
Asteroid physical parameters (km, seconds, rotational period in hours):        
   GM= n.a.                RAD= 4.7325             ROTPER= 119.642             
   H= 12.33                G= .150                 B-V= n.a.                   
                           ALBEDO= .183            STYP= n.a.                  
*******************************************************************************
JDTDB
   X     Y     Z
   VX    VY    VZ
*******************************************************************************
$$SOE
2460168.500000000 = A.D. 2023-Aug-12 00:00:00.0000 TDB 
 X = 3.845903189646333E+08 Y = 1.002004995318144E+07 Z = 2.675562797320791E+07
 VX= 5.618379588807395E-01 VY= 1.864604816927469E+01 VZ= 2.525453668176709E+00
$$EOE
*******************************************************************************
 
TIME

  Barycentric Dynamical Time ("TDB" or T_eph) output was requested. This
continuous coordinate time is equivalent to the relativistic proper time
of a clock at rest in a reference frame co-moving with the solar system
barycenter but outside the system's gravity well. It is the independent
variable in the solar system relativistic equations of motion.

  TDB runs at a uniform rate of one SI second per second and is independent
of irregularities in Earth's rotation.
 
CALENDAR SYSTEM

  Mixed calendar mode was active such that calendar dates after AD 1582-Oct-15
(if any) are in the modern Gregorian system. Dates prior to 1582-Oct-5 (if any)
are in the Julian calendar system, which is automatically extended for dates
prior to its adoption on 45-Jan-1 BC.  The Julian calendar is useful for
matching historical dates. The Gregorian calendar more accurately corresponds
to the Earth's orbital motion and seasons. A "Gregorian-only" calendar mode is
available if such physical events are the primary interest.

REFERENCE FRAME AND COORDINATES

  Ecliptic at the standard reference epoch

    Reference epoch: J2000.0
    X-Y plane: adopted Earth orbital plane at the reference epoch
               Note: IAU76 obliquity of 84381.448 arcseconds wrt ICRF X-Y plane
    X-axis   : ICRF
    Z-axis   : perpendicular to the X-Y plane in the directional (+ or -) sense
               of Earth's north pole at the reference epoch.

  Symbol meaning:

    JDTDB    Julian Day Number, Barycentric Dynamical Time
      X      X-component of position vector (km)
      Y      Y-component of position vector (km)
      Z      Z-component of position vector (km)
      VX     X-component of velocity vector (km/sec)                           
      VY     Y-component of velocity vector (km/sec)                           
      VZ     Z-component of velocity vector (km/sec)                           

ABERRATIONS AND CORRECTIONS

 Geometric state vectors have NO corrections or aberrations applied.

Computations by ...

    Solar System Dynamics Group, Horizons On-Line Ephemeris System
    4800 Oak Grove Drive, Jet Propulsion Laboratory
    Pasadena, CA  91109   USA

    General site: https://ssd.jpl.nasa.gov/
    Mailing list: https://ssd.jpl.nasa.gov/email_list.html
    System news : https://ssd.jpl.nasa.gov/horizons/news.html
    User Guide  : https://ssd.jpl.nasa.gov/horizons/manual.html
    Connect     : browser        https://ssd.jpl.nasa.gov/horizons/app.html#/x
                  API            https://ssd-api.jpl.nasa.gov/doc/horizons.html
                  command-line   telnet ssd.jpl.nasa.gov 6775
                  e-mail/batch   https://ssd.jpl.nasa.gov/ftp/ssd/hrzn_batch.txt
                  scripts        https://ssd.jpl.nasa.gov/ftp/ssd/SCRIPTS
    Author      : Jon.D.Giorgini@jpl.nasa.gov
*******************************************************************************
